NORAD_CAT_ID,OBJECT_NAME,OBJECT_TYPE,EPOCH,MEAN_MOTION,ECCENTRICITY,INCLINATION,RA_OF_ASC_NODE,ARG_OF_PERICENTER,MEAN_ANOMALY,BSTAR,MEAN_MOTION_DOT,MEAN_MOTION_DDOT,TLE_LINE0,TLE_LINE1,TLE_LINE2,SEMIMAJOR_AXIS,PERIOD,APOGEE,PERIGEE,DECAYED
53272.0,STARLINK-4122,PAYLOAD,2022-09-19 14:00:01,15.73171935,0.0002648,53.2171,121.0133,16.962,326.0518,0.00059594,0.00083761,0.0,0 STARLINK-4122,1 53272U 22086AG  22262.58334491  .00083761  00000-0  59594-3 0  9998,2 53272  53.2171 121.0133 0002648  16.9620 326.0518 15.73171935  1306,6727.975,91.535,351.622,348.059,0.0
53272.0,STARLINK-4122,PAYLOAD,2022-09-19 22:00:00,15.73243297,0.0002863,53.2171,119.3661,14.3872,57.56,-0.00050747,-0.0007139,0.0,0 STARLINK-4122,1 53272U 22086AG  22262.91667824 -.00071390  00000-0 -50747-3 0  9992,2 53272  53.2171 119.3661 0002863  14.3872  57.5600 15.73243297  9668,6727.772,91.531,351.56300000000016,347.711,0.0
53272.0,STARLINK-4122,PAYLOAD,2022-09-20 06:00:00,15.73229714,0.0002832,53.2171,117.7158,12.5626,148.3461,-0.00056146,-0.00078804,0.0,0 STARLINK-4122,1 53272U 22086AG  22263.25001157 -.00078804  00000-0 -56146-3 0  9997,2 53272  53.2171 117.7158 0002832  12.5626 148.3461 15.73229714  9712,6727.81,91.531,351.581,347.77,0.0
53272.0,STARLINK-4122,PAYLOAD,2022-09-20 14:00:01,15.73180008,0.0002663999999999,53.2175,116.0649,15.1725,234.6589,-0.0001763,-0.00025274,0.0,0 STARLINK-4122,1 53272U 22086AG  22263.58334491 -.00025274  00000-0 -17630-3 0  9991,2 53272  53.2175 116.0649 0002664  15.1725 234.6589 15.73180008  1304,6727.9519999999975,91.534,351.6090000000001,348.025,0.0
53272.0,STARLINK-4122,PAYLOAD,2022-09-20 22:00:01,15.73154376,0.0002968,53.2175,114.4177,13.5124,325.2908,0.0003237,0.0004497,0.0,0 STARLINK-4122,1 53272U 22086AG  22263.91668981  .00044970  00000-0  32370-3 0  9992,2 53272  53.2175 114.4177 0002968  13.5124 325.2908 15.73154376  9819,6728.025,91.536,351.88699999999994,347.89300000000014,0.0
53272.0,STARLINK-4122,PAYLOAD,2022-09-21 14:00:01,15.73164132,0.0002771999999999,53.2173,111.1172,19.4898,137.0492,0.00045252,0.00063277,0.0,0 STARLINK-4122,1 53272U 22086AG  22264.58334491  .00063277  00000-0  45252-3 0  9996,2 53272  53.2173 111.1172 0002772  19.4898 137.0492 15.73164132  9922,6727.996999999999,91.535,351.727,347.997,0.0
53272.0,STARLINK-4122,PAYLOAD,2022-09-21 22:00:00,15.73190793,0.0003072,53.2171,109.4699,17.4652,227.9877,0.00039323,0.00054915,0.0,0 STARLINK-4122,1 53272U 22086AG  22264.91667824  .00054915  00000-0  39323-3 0  9993,2 53272  53.2171 109.4699 0003072  17.4652 227.9877 15.73190793  1306,6727.920999999999,91.534,351.853,347.72,0.0
53272.0,STARLINK-4122,PAYLOAD,2022-09-22 06:00:00,15.73302983,0.0002897,53.2169,107.8089,12.9781,321.4077,-0.001286,-0.00178173,0.0,0 STARLINK-4122,1 53272U 22086AG  22265.25001157 -.00178173  00000-0 -12860-2 0  9993,2 53272  53.2169 107.8089 0002897  12.9781 321.4077 15.73302983 10022,6727.602,91.527,351.416,347.51800000000014,0.0
53272.0,STARLINK-4122,PAYLOAD,2022-09-22 14:00:01,15.73205777,0.0002711,53.217,106.147,12.1971,51.18600000000001,-0.0044073,-0.00578793,0.0,0 STARLINK-4122,1 53272U 22086AG  22265.58334491 -.00578793  00000-0 -44073-2 0  9992,2 53272  53.2170 106.1470 0002711  12.1971  51.1860 15.73205777 10084,6727.879,91.533,351.5680000000001,347.92,0.0
53272.0,STARLINK-4122,PAYLOAD,2022-09-22 22:00:00,15.72753763,0.0002859,53.2176,104.4921,311.4586,200.6712,-0.0073713,-0.00912092,0.0,0 STARLINK-4122,1 53272U 22086AG  22265.91667824 -.00912092  00000-0 -73713-2 0  9995,2 53272  53.2176 104.4921 0002859 311.4586 200.6712 15.72753763 10137,6729.168000000002,91.559,352.957,349.1090000000001,0.0
53272.0,STARLINK-4122,PAYLOAD,2022-09-23 14:00:01,15.71326502,0.0006452,53.217,101.1906,272.3254,54.9337,-0.0090049,-0.01052726,0.0,0 STARLINK-4122,1 53272U 22086AG  22266.58334491 -.01052726  00000-0 -90049-2 0  9991,2 53272  53.2170 101.1906 0006452 272.3254  54.9337 15.71326502 10238,6733.2419999999975,91.642,359.451,350.76300000000015,0.0
53272.0,STARLINK-4122,PAYLOAD,2022-09-23 22:00:00,15.706008,0.000674,53.2173,99.546,271.2822,142.1751,-0.0096981,-0.01094827,0.0,0 STARLINK-4122,1 53272U 22086AG  22266.91667824 -.01094827  00000-0 -96981-2 0  9996,2 53272  53.2173  99.5460 0006740 271.2822 142.1751 15.70600800  1308,6735.316,91.685,361.72,352.641,0.0
53272.0,STARLINK-4122,PAYLOAD,2022-09-24 14:00:01,15.68931131,0.0003801,53.2172,96.2503,277.9308,305.3705,-0.0083472,-0.00882241,0.0,0 STARLINK-4122,1 53272U 22086AG  22267.58335648 -.00882241  00000-0 -83472-2 0  9991,2 53272  53.2172  96.2503 0003801 277.9308 305.3705 15.68931131  1309,6740.093000000003,91.782,364.52,359.397,0.0
53272.0,STARLINK-4122,PAYLOAD,2022-09-24 22:00:00,15.6828084,0.0001778,53.2175,94.6055,310.5678,356.0912,-0.010048,-0.01033285,0.0,0 STARLINK-4122,1 53272U 22086AG  22267.91667824 -.01033285  00000-0 -10048-1 0  9997,2 53272  53.2175  94.6055 0001778 310.5678 356.0912 15.68280840  1308,6741.956999999999,91.82,365.02,362.62300000000016,0.0
53272.0,STARLINK-4122,PAYLOAD,2022-09-25 06:00:00,15.67532315,0.0006351,53.2175,92.9629,269.6807,119.5428,-0.01054,-0.01051486,0.0,0 STARLINK-4122,1 53272U 22086AG  22268.25001157 -.01051486  00000-0 -10540-1 0  9996,2 53272  53.2175  92.9629 0006351 269.6807 119.5428 15.67532315 10508,6744.103,91.864,370.251,361.684,0.0
53272.0,STARLINK-4122,PAYLOAD,2022-09-25 14:00:01,15.66785532,0.0003237,53.2177,91.3239,270.8748,199.9996,-0.0111349999999999,-0.0107298,0.0,0 STARLINK-4122,1 53272U 22086AG  22268.58334491 -.01072980  00000-0 -11135-1 0  9995,2 53272  53.2177  91.3239 0003237 270.8748 199.9996 15.66785532  1308,6746.245,91.908,370.294,365.927,0.0
53272.0,STARLINK-4122,PAYLOAD,2022-09-25 22:00:01,15.66014289,0.000425,53.2175,89.6885,270.9979,280.6876,-0.011274,-0.0105534,0.0,0 STARLINK-4122,1 53272U 22086AG  22268.91668981 -.01055340  00000-0 -11274-1 0  9991,2 53272  53.2175  89.6885 0004250 270.9979 280.6876 15.66014289 10608,6748.46,91.953,373.193,367.457,0.0
53272.0,STARLINK-4122,PAYLOAD,2022-09-26 12:00:00,15.64683506,0.0001824,53.2173,86.8257,32.6912,208.0327,-0.011822,-0.01048412,0.0,0 STARLINK-4122,1 53272U 22086AG  22269.50001157 -.01048412  00000-0 -11822-1 0  9994,2 53272  53.2173  86.8257 0001824  32.6912 208.0327 15.64683506 10698,6752.286,92.031,375.383,372.92,0.0
53272.0,STARLINK-4122,PAYLOAD,2022-09-26 14:00:01,15.64432084,0.0004013,53.2168,86.4199,278.6065,71.7916,-0.010967,-0.00971711,0.0,0 STARLINK-4122,1 53272U 22086AG  22269.58334491 -.00971711  00000-0 -10967-1 0  9997,2 53272  53.2168  86.4199 0004013 278.6065  71.7916 15.64432084  1307,6753.01,92.046,377.585,372.165,0.0
53272.0,STARLINK-4122,PAYLOAD,2022-09-26 22:00:00,15.63618512,0.0001613,53.2172,84.7894,39.1579,29.2699,-0.010369,-0.00895744,0.0,0 STARLINK-4122,1 53272U 22086AG  22269.91667824 -.00895744  00000-0 -10369-1 0  9990,2 53272  53.2172  84.7894 0001613  39.1579  29.2699 15.63618512  1305,6755.352,92.094,378.306,376.127,0.0
53272.0,STARLINK-4122,PAYLOAD,2022-09-27 06:00:00,15.62914015,0.0001735,53.217,83.1588,29.3706,116.1214,-0.011614,-0.00968242,0.0,0 STARLINK-4122,1 53272U 22086AG  22270.25001157 -.00968242  00000-0 -11614-1 0  9998,2 53272  53.2170  83.1588 0001735  29.3706 116.1214 15.62914015 10815,6757.382,92.136,380.419,378.074,0.0
53272.0,STARLINK-4122,PAYLOAD,2022-09-27 14:00:01,15.62183344,0.0001563,53.2174,81.5301,42.5058,179.1532,-0.012508,-0.01008739,0.0,0 STARLINK-4122,1 53272U 22086AG  22270.58334491 -.01008739  00000-0 -12508-1 0  9994,2 53272  53.2174  81.5301 0001563  42.5058 179.1532 15.62183344  1309,6759.489000000001,92.179,382.41,380.297,0.0
53272.0,STARLINK-4122,PAYLOAD,2022-09-27 22:00:01,15.61465495,0.0001543,53.2173,79.9069,40.713,256.2539,-0.0136169999999999,-0.01078399,0.0,0 STARLINK-4122,1 53272U 22086AG  22270.91668981 -.01078399  00000-0 -13617-1 0  9996,2 53272  53.2173  79.9069 0001543  40.7130 256.2539 15.61465495  1302,6761.56,92.221,384.468,382.382,0.0
53272.0,STARLINK-4122,PAYLOAD,2022-09-28 06:00:00,15.60695609,0.0001594,53.2173,78.2786,30.3537,340.909,-0.013825,-0.01064012,0.0,0 STARLINK-4122,1 53272U 22086AG  22271.25001157 -.01064012  00000-0 -13825-1 0  9998,2 53272  53.2173  78.2786 0001594  30.3537 340.9090 15.60695609 10979,6763.784000000002,92.267,386.727,384.57,0.0
53272.0,STARLINK-4122,PAYLOAD,2022-09-28 14:00:01,15.59936736,0.0001764,53.2176,76.6566,31.5337,53.1695,-0.014244,-0.01064602,0.0,0 STARLINK-4122,1 53272U 22086AG  22271.58334491 -.01064602  00000-0 -14244-1 0  9995,2 53272  53.2176  76.6566 0001764  31.5337  53.1695 15.59936736  1308,6765.977,92.311,389.036,386.648,0.0
53272.0,STARLINK-4122,PAYLOAD,2022-09-28 22:00:00,15.59077579,0.0001701,53.217,75.0373,38.4758,118.8024,-0.0126349999999999,-0.00912919,0.0,0 STARLINK-4122,1 53272U 22086AG  22271.91667824 -.00912919  00000-0 -12635-1 0  9995,2 53272  53.2170  75.0373 0001701  38.4758 118.8024 15.59077579  1301,6768.462,92.362,391.479,389.176,0.0
53272.0,STARLINK-4122,PAYLOAD,2022-09-29 06:00:00,15.58421035,0.0001844,53.2173,73.4167,30.7329,198.1121,-0.015131,-0.0106697,0.0,0 STARLINK-4122,1 53272U 22086AG  22272.25001157 -.01066970  00000-0 -15131-1 0  9996,2 53272  53.2173  73.4167 0001844  30.7329 198.1121 15.58421035 11123,6770.363,92.401,393.477,390.98,0.0
53272.0,STARLINK-4122,PAYLOAD,2022-09-29 14:00:01,15.57559464,0.0001468,53.2169,71.7994,42.0315,257.5687,-0.013469,-0.00918042,0.0,0 STARLINK-4122,1 53272U 22086AG  22272.58334491 -.00918042  00000-0 -13469-1 0  9999,2 53272  53.2169  71.7994 0001468  42.0315 257.5687 15.57559464  1303,6772.86,92.452,395.719,393.731,0.0
53272.0,STARLINK-4122,PAYLOAD,2022-09-29 22:00:00,15.5680073,0.0001460999999999,53.2168,70.1848,39.6911,329.7001,-0.0139,-0.00920481,0.0,0 STARLINK-4122,1 53272U 22086AG  22272.91667824 -.00920481  00000-0 -13900-1 0  9995,2 53272  53.2168  70.1848 0001461  39.6911 329.7001 15.56800730 11239,6775.06,92.497,397.915,395.935,0.0
